start=new Date('2023-03-11T00:00:00.000Z').valueOf();
sats=[{"SITE":"AFETR","MEAN_MOTION_DDOT":"0.0000000000000","CENTER_NAME":"EARTH","ARG_OF_PERICENTER":"120.0631","REV_AT_EPOCH":"3608","COUNTRY_CODE":"US","ECCENTRICITY":"0.00018970","TIME_SYSTEM":"UTC","EPOCH":"2023-03-10T21:52:07.802688","MEAN_ANOMALY":"240.0549","REF_FRAME":"TEME","PERIOD":"95.437","GP_ID":"227816743","RCS_SIZE":"LARGE","MEAN_ELEMENT_THEORY":"SGP4","MEAN_MOTION":"15.08844228","DECAY_DATE":null,"CLASSIFICATION_TYPE":"U","INCLINATION":"53.2198","SEMIMAJOR_AXIS":"6917.867","RA_OF_ASC_NODE":"38.7714","EPHEMERIS_TYPE":"0","APOAPSIS":"541.045","PERIAPSIS":"538.420","NORAD_CAT_ID":"53158","ELEMENT_SET_NO":"999","TLE_LINE1":"1 53158U 22083AC  23069.91120142  .00019978  00000-0  12696-2 0  9997","FILE":"3856975","TLE_LINE2":"2 53158  53.2198  38.7714 0001897 120.0631 240.0549 15.08844228 36083","OBJECT_ID":"2022-083AC","OBJECT_NAME":"STARLINK-4054","LAUNCH_DATE":"2022-07-17","OBJECT_TYPE":"PAYLOAD","BSTAR":"0.00126960000000","MEAN_MOTION_DOT":"0.00019978"},{"SITE":"AFETR","MEAN_MOTION_DDOT":"0.0000000000000","CENTER_NAME":"EARTH","ARG_OF_PERICENTER":"83.2336","REV_AT_EPOCH":"3604","COUNTRY_CODE":"US","ECCENTRICITY":"0.00012190","TIME_SYSTEM":"UTC","EPOCH":"2023-03-10T15:04:06.546720","MEAN_ANOMALY":"276.8794","REF_FRAME":"TEME","PERIOD":"95.438","GP_ID":"227817495","RCS_SIZE":"LARGE","MEAN_ELEMENT_THEORY":"SGP4","MEAN_MOTION":"15.08831291","DECAY_DATE":null,"CLASSIFICATION_TYPE":"U","INCLINATION":"53.2189","SEMIMAJOR_AXIS":"6917.907","RA_OF_ASC_NODE":"40.0419","EPHEMERIS_TYPE":"0","APOAPSIS":"540.615","PERIAPSIS":"538.929","NORAD_CAT_ID":"53159","FILE":"3856975","TLE_LINE1":"1 53159U 22083AD  23069.62785355  .00028678  00000-0  18131-2 0  9996","ELEMENT_SET_NO":"999","TLE_LINE2":"2 53159  53.2189  40.0419 0001219  83.2336 276.8794 15.08831291 36043","OBJECT_ID":"2022-083AD","OBJECT_NAME":"STARLINK-4111","LAUNCH_DATE":"2022-07-17","OBJECT_TYPE":"PAYLOAD","BSTAR":"0.00181310000000","MEAN_MOTION_DOT":"0.00028678"},{"PERIOD":"95.438","REF_FRAME":"TEME","GP_ID":"227818245","EPOCH":"2023-03-10T15:19:59.384928","MEAN_ANOMALY":"291.0380","RCS_SIZE":"LARGE","CENTER_NAME":"EARTH","SITE":"AFETR","MEAN_MOTION_DDOT":"0.0000000000000","ECCENTRICITY":"0.00019580","TIME_SYSTEM":"UTC","ARG_OF_PERICENTER":"69.0822","COUNTRY_CODE":"US","REV_AT_EPOCH":"3604","OBJECT_NAME":"STARLINK-4096","BSTAR":"0.00258360000000","MEAN_MOTION_DOT":"0.00041069","LAUNCH_DATE":"2022-07-17","OBJECT_TYPE":"PAYLOAD","RA_OF_ASC_NODE":"39.9927","SEMIMAJOR_AXIS":"6917.884","INCLINATION":"53.2189","APOAPSIS":"541.103","EPHEMERIS_TYPE":"0","MEAN_MOTION":"15.08838874","DECAY_DATE":null,"MEAN_ELEMENT_THEORY":"SGP4","CLASSIFICATION_TYPE":"U","OBJECT_ID":"2022-083AE","NORAD_CAT_ID":"53160","PERIAPSIS":"538.394","TLE_LINE2":"2 53160  53.2189  39.9927 0001958  69.0822 291.0380 15.08838874 36042","ELEMENT_SET_NO":"999","TLE_LINE1":"1 53160U 22083AE  23069.63888177  .00041069  00000-0  25836-2 0  9994","FILE":"3856975"},{"CENTER_NAME":"EARTH","MEAN_MOTION_DDOT":"0.0000000000000","SITE":"AFETR","TIME_SYSTEM":"UTC","ECCENTRICITY":"0.00022130","REV_AT_EPOCH":"3604","COUNTRY_CODE":"US","ARG_OF_PERICENTER":"80.5584","GP_ID":"227816993","PERIOD":"95.436","REF_FRAME":"TEME","MEAN_ANOMALY":"279.5658","EPOCH":"2023-03-10T14:48:11.245248","RCS_SIZE":"LARGE","APOAPSIS":"541.213","EPHEMERIS_TYPE":"0","SEMIMAJOR_AXIS":"6917.817","RA_OF_ASC_NODE":"40.0939","INCLINATION":"53.2168","CLASSIFICATION_TYPE":"U","DECAY_DATE":null,"MEAN_MOTION":"15.08860592","MEAN_ELEMENT_THEORY":"SGP4","OBJECT_ID":"2022-083AF","TLE_LINE2":"2 53161  53.2168  40.0939 0002213  80.5584 279.5658 15.08860592 36045","FILE":"3856975","TLE_LINE1":"1 53161U 22083AF  23069.61679682  .00011503  00000-0  73920-3 0  9990","ELEMENT_SET_NO":"999","NORAD_CAT_ID":"53161","PERIAPSIS":"538.152","OBJECT_NAME":"STARLINK-4055","MEAN_MOTION_DOT":"0.00011503","BSTAR":"0.00073920000000","OBJECT_TYPE":"PAYLOAD","LAUNCH_DATE":"2022-07-17"},{"OBJECT_ID":"2022-083AG","TLE_LINE2":"2 53162  53.2175  40.0312 0001250  95.2866 264.8269 15.08846377 36045","FILE":"3856975","TLE_LINE1":"1 53162U 22083AG  23069.63151849  .00016496  00000-0  10519-2 0  9993","ELEMENT_SET_NO":"999","NORAD_CAT_ID":"53162","PERIAPSIS":"538.861","APOAPSIS":"540.591","EPHEMERIS_TYPE":"0","SEMIMAJOR_AXIS":"6917.861","RA_OF_ASC_NODE":"40.0312","INCLINATION":"53.2175","CLASSIFICATION_TYPE":"U","DECAY_DATE":null,"MEAN_MOTION":"15.08846377","MEAN_ELEMENT_THEORY":"SGP4","MEAN_MOTION_DOT":"0.00016496","BSTAR":"0.00105190000000","OBJECT_TYPE":"PAYLOAD","LAUNCH_DATE":"2022-07-17","OBJECT_NAME":"STARLINK-4114","TIME_SYSTEM":"UTC","ECCENTRICITY":"0.00012500","REV_AT_EPOCH":"3604","COUNTRY_CODE":"US","ARG_OF_PERICENTER":"95.2866","CENTER_NAME":"EARTH","MEAN_MOTION_DDOT":"0.0000000000000","SITE":"AFETR","RCS_SIZE":"LARGE","GP_ID":"227817243","PERIOD":"95.437","REF_FRAME":"TEME","MEAN_ANOMALY":"264.8269","EPOCH":"2023-03-10T15:09:23.197536"},{"COUNTRY_CODE":"US","REV_AT_EPOCH":"3609","ARG_OF_PERICENTER":"101.4874","TIME_SYSTEM":"UTC","ECCENTRICITY":"0.00022270","MEAN_MOTION_DDOT":"0.0000000000000","SITE":"AFETR","CENTER_NAME":"EARTH","RCS_SIZE":"LARGE","MEAN_ANOMALY":"258.6368","EPOCH":"2023-03-10T22:35:54.239136","GP_ID":"227817995","REF_FRAME":"TEME","PERIOD":"95.438","ELEMENT_SET_NO":"999","TLE_LINE1":"1 53163U 22083AH  23069.94159999  .00008942  00000-0  57926-3 0  9993","FILE":"3856975","TLE_LINE2":"2 53163  53.2193  38.6383 0002227 101.4874 258.6368 15.08834533 36098","PERIAPSIS":"538.221","NORAD_CAT_ID":"53163","OBJECT_ID":"2022-083AH","CLASSIFICATION_TYPE":"U","MEAN_ELEMENT_THEORY":"SGP4","DECAY_DATE":null,"MEAN_MOTION":"15.08834533","EPHEMERIS_TYPE":"0","APOAPSIS":"541.303","INCLINATION":"53.2193","SEMIMAJOR_AXIS":"6917.897","RA_OF_ASC_NODE":"38.6383","OBJECT_TYPE":"PAYLOAD","LAUNCH_DATE":"2022-07-17","MEAN_MOTION_DOT":"0.00008942","BSTAR":"0.00057926000000","OBJECT_NAME":"STARLINK-4104"},{"COUNTRY_CODE":"US","REV_AT_EPOCH":"3604","ARG_OF_PERICENTER":"88.3892","TIME_SYSTEM":"UTC","ECCENTRICITY":"0.00020570","MEAN_MOTION_DDOT":"0.0000000000000","SITE":"AFETR","CENTER_NAME":"EARTH","RCS_SIZE":"LARGE","MEAN_ANOMALY":"271.7336","EPOCH":"2023-03-10T14:53:29.522112","GP_ID":"227817746","PERIOD":"95.438","REF_FRAME":"TEME","TLE_LINE2":"2 53164  53.2161  40.0787 0002057  88.3892 271.7336 15.08828117 36040","TLE_LINE1":"1 53164U 22083AJ  23069.62048058 -.00006394  00000-0 -38407-3 0  9996","FILE":"3856975","ELEMENT_SET_NO":"999","NORAD_CAT_ID":"53164","PERIAPSIS":"538.359","OBJECT_ID":"2022-083AJ","CLASSIFICATION_TYPE":"U","DECAY_DATE":null,"MEAN_MOTION":"15.08828117","MEAN_ELEMENT_THEORY":"SGP4","APOAPSIS":"541.205","EPHEMERIS_TYPE":"0","RA_OF_ASC_NODE":"40.0787","SEMIMAJOR_AXIS":"6917.917","INCLINATION":"53.2161","OBJECT_TYPE":"PAYLOAD","LAUNCH_DATE":"2022-07-17","MEAN_MOTION_DOT":"-0.00006394","BSTAR":"-0.00038407000000","OBJECT_NAME":"STARLINK-4116"},{"OBJECT_ID":"2022-083AK","ELEMENT_SET_NO":"999","TLE_LINE1":"1 53165U 22083AK  23069.93695981  .00021174  00000-0  13443-2 0  9997","FILE":"3856975","TLE_LINE2":"2 53165  53.2164  38.6550 0001288  93.2704 266.8436 15.08844154 36097","PERIAPSIS":"538.842","NORAD_CAT_ID":"53165","EPHEMERIS_TYPE":"0","APOAPSIS":"540.624","INCLINATION":"53.2164","SEMIMAJOR_AXIS":"6917.868","RA_OF_ASC_NODE":"38.6550","CLASSIFICATION_TYPE":"U","MEAN_ELEMENT_THEORY":"SGP4","DECAY_DATE":null,"MEAN_MOTION":"15.08844154","MEAN_MOTION_DOT":"0.00021174","BSTAR":"0.00134430000000","OBJECT_TYPE":"PAYLOAD","LAUNCH_DATE":"2022-07-17","OBJECT_NAME":"STARLINK-4090","TIME_SYSTEM":"UTC","ECCENTRICITY":"0.00012880","COUNTRY_CODE":"US","REV_AT_EPOCH":"3609","ARG_OF_PERICENTER":"93.2704","CENTER_NAME":"EARTH","MEAN_MOTION_DDOT":"0.0000000000000","SITE":"AFETR","RCS_SIZE":"LARGE","GP_ID":"227816495","REF_FRAME":"TEME","PERIOD":"95.437","MEAN_ANOMALY":"266.8436","EPOCH":"2023-03-10T22:29:13.327584"},{"ECCENTRICITY":"0.00010480","TIME_SYSTEM":"UTC","ARG_OF_PERICENTER":"85.2167","REV_AT_EPOCH":"3604","COUNTRY_CODE":"US","CENTER_NAME":"EARTH","SITE":"AFETR","MEAN_MOTION_DDOT":"0.0000000000000","RCS_SIZE":"LARGE","PERIOD":"95.437","REF_FRAME":"TEME","GP_ID":"227816744","EPOCH":"2023-03-10T14:42:53.282880","MEAN_ANOMALY":"274.8945","OBJECT_ID":"2022-083AL","NORAD_CAT_ID":"53166","PERIAPSIS":"539.004","TLE_LINE2":"2 53166  53.2153  40.1089 0001048  85.2167 274.8945 15.08845257 36043","TLE_LINE1":"1 53166U 22083AL  23069.61311670  .00008159  00000-0  53006-3 0  9991","FILE":"3856975","ELEMENT_SET_NO":"999","SEMIMAJOR_AXIS":"6917.864","RA_OF_ASC_NODE":"40.1089","INCLINATION":"53.2153","APOAPSIS":"540.454","EPHEMERIS_TYPE":"0","DECAY_DATE":null,"MEAN_MOTION":"15.08845257","MEAN_ELEMENT_THEORY":"SGP4","CLASSIFICATION_TYPE":"U","BSTAR":"0.00053006000000","MEAN_MOTION_DOT":"0.00008159","LAUNCH_DATE":"2022-07-17","OBJECT_TYPE":"PAYLOAD","OBJECT_NAME":"STARLINK-4110"},{"COUNTRY_CODE":"US","REV_AT_EPOCH":"3617","ARG_OF_PERICENTER":"99.8740","TIME_SYSTEM":"UTC","ECCENTRICITY":"0.00012550","MEAN_MOTION_DDOT":"0.0000000000000","SITE":"AFETR","CENTER_NAME":"EARTH","RCS_SIZE":"LARGE","MEAN_ANOMALY":"260.2394","EPOCH":"2023-03-10T03:50:24.877824","GP_ID":"227817496","PERIOD":"95.436","REF_FRAME":"TEME","TLE_LINE2":"2 53167  53.2190  27.1317 0001255  99.8740 260.2394 15.08867953 36170","FILE":"3856975","TLE_LINE1":"1 53167U 22083AM  23069.16001016  .00012787  00000-0  81941-3 0  9993","ELEMENT_SET_NO":"999","NORAD_CAT_ID":"53167","PERIAPSIS":"538.792","OBJECT_ID":"2022-083AM","CLASSIFICATION_TYPE":"U","MEAN_MOTION":"15.08867953","DECAY_DATE":null,"MEAN_ELEMENT_THEORY":"SGP4","APOAPSIS":"540.528","EPHEMERIS_TYPE":"0","RA_OF_ASC_NODE":"27.1317","SEMIMAJOR_AXIS":"6917.795","INCLINATION":"53.2190","OBJECT_TYPE":"PAYLOAD","LAUNCH_DATE":"2022-07-17","MEAN_MOTION_DOT":"0.00012787","BSTAR":"0.00081941000000","OBJECT_NAME":"STARLINK-3683"}];
